STARLINK-3678           
1 52121U 22029AK  26156.86642449  .00001701  00000+0  12497-3 0  9993
2 52121  53.1884  33.2452 0003431  88.2214 271.9171 15.08849094234237
STARLINK-3726           
1 52122U 22029AL  26156.88757876  .00000338  00000+0  39299-4 0  9992
2 52122  53.1775  43.1550 0001061 103.2537 256.8573 15.08833997234108
STARLINK-3725           
1 52123U 22029AM  26157.37151310  .00001303  00000+0  99943-4 0  9994
2 52123  53.1752  30.8017 0001225  88.1086 272.0046 15.08841112234324
STARLINK-3727           
1 52125U 22029AP  26157.38529904  .00000525  00000+0  51062-4 0  9990
2 52125  53.1756  30.9183 0001382  81.9765 278.1383 15.08838343234327
STARLINK-3732           
1 52126U 22029AQ  26157.32643898  .00001291  00000+0  99223-4 0  9996
2 52126  53.1748  31.1811 0002349  47.6306 312.4884 15.08827002234300
STARLINK-3715           
1 52127U 22029AR  26157.38161636  .00000432  00000+0  45218-4 0  9999
2 52127  53.1755  30.9341 0001291  81.3723 278.7415 15.08842064234317
STARLINK-3661           
1 52129U 22029AT  26157.37425836  .00000874  00000+0  72986-4 0  9997
2 52129  53.1748  30.9663 0001255  96.9815 263.1320 15.08836393234324
STARLINK-3711           
1 52131U 22029AV  26156.91565209  .00028412  00000+0  13891-2 0  9994
2 52131  53.2154  26.8698 0004130  99.8229 260.3234 15.18027262234340
STARLINK-3718           
1 52132U 22029AW  26157.37793908  .00000612  00000+0  56535-4 0  9991
2 52132  53.1740  30.9512 0001332  83.3545 276.7598 15.08837230234327
STARLINK-3707           
1 52133U 22029AX  26157.36321954  .00001092  00000+0  86669-4 0  9993
2 52133  53.1725  31.0147 0001276  90.6465 269.4672 15.08835147234323
STARLINK-3721           
1 52134U 22029AY  26157.36689870  .00001386  00000+0  10517-3 0  9992
2 52134  53.1739  30.9984 0001313  89.1878 270.9264 15.08836680234326
STARLINK-3729           
1 52135U 22029AZ  26157.54658331  .01011733  63790-3  91956-3 0  9994
2 52135  53.2142   9.5195 0002801 273.3289  86.7428 16.12065036234643
STARLINK-3720           
1 52136U 22029BA  26157.35954229  .00000895  00000+0  74334-4 0  9998
2 52136  53.1724  31.0307 0001515  89.9197 270.1968 15.08833750234327
STARLINK-3733           
1 52137U 22029BB  26157.34850197  .00000025  00000+0  19657-4 0  9999
2 52137  53.1735  31.0782 0001314  83.5248 276.5894 15.08835320234324
STARLINK-3723           
1 52138U 22029BC  26157.35586960  .00006634  00000+0  43492-3 0  9990
2 52138  53.1745  31.0515 0001369 117.9258 242.1872 15.08802974234327
STARLINK-3730           
1 52139U 22029BD  26157.40277494  .00001172  00000+0  91697-4 0  9999
2 52139  53.1753  40.8377 0001244  91.7232 268.3902 15.08843891234185
STARLINK-3682           
1 52140U 22029BE  26157.34480960 -.00002484  00000+0 -13802-3 0  9998
2 52140  53.1887  31.1020 0002967 103.9716 256.1606 15.08823270234320
MERIDIAN 10             
1 52145U 22030A   26157.50251558  .00000233  00000+0  00000+0 0  9992
2 52145  62.6782 141.9394 6780806 272.8632  17.6770  2.00614902 30810
TK-2                    
1 52150U 22031A   26157.88235638  .00003660  00000+0  27237-3 0  9993
2 52150  97.8337 353.9029 0016188 156.1077 204.0903 15.03497881228910
PUJIANG 2 (PJ-2)        
1 52151U 22031B   26157.86141094  .00000926  00000+0  91627-4 0  9991
2 52151  97.8610 343.3928 0010477 233.3270 126.6987 14.94304504228250
TIANPING 2A             
1 52153U 22032A   26157.85401201  .00002071  00000+0  18398-3 0  9998
2 52153  97.5857 195.8650 0009364 204.2920 155.7862 14.97178473228292
TIANPING 2B             
1 52155U 22032C   26157.83378590  .00000695  00000+0  57949-4 0  9998
2 52155  97.5852 203.3301 0022564 193.6449 166.4168 15.01617094228720
TIANPING 2C             
1 52156U 22032D   26157.88901300  .00007793  00000+0  46844-3 0  9992
2 52156  97.5830 210.3287 0006357 178.4652 181.6598 15.11128827229298
OMNI-L1                 
1 52157U 22033A   26157.44884734  .00002514  00000+0  31791-3 0  9998
2 52157  97.8389 236.8351 0004287 333.8855  26.2142 14.82709966225862
GNOMES-3                
1 52158U 22033B   26157.45741071  .00002202  00000+0  26387-3 0  9995
2 52158  97.8226 233.9581 0010777   7.0950 353.0416 14.85047576225740
ENMAP                   
1 52159U 22033C   26157.85404808  .00000137  00000+0  27855-4 0  9991
2 52159  97.9790 240.2499 0001391  80.2400 279.8966 14.74977835225138
ARCSAT-1                
1 52161U 22033E   26157.49730442  .00017349  00000+0  27595-3 0  9993
2 52161  97.2747 249.6136 0003913 221.4280 138.6677 15.53357717234044
NUSAT-26 (M SOMERVILLE) 
1 52184U 22033AD  26157.86011093  .00008907  00000+0  21172-3 0  9998
2 52184  97.2350 237.0234 0004191 281.5483  78.5294 15.41881755103111
GLOBAL-18               
1 52196U 22034B   26157.58874670  .00026573  00000+0  54618-3 0  9999
2 52196  52.9829 307.2751 0003473 221.6043 138.4698 15.45816795235325
GAOFEN-3 03             
1 52200U 22035A   26157.89234183  .00000008  00000+0  15562-4 0  9990
2 52200  98.4064 166.6223 0001081  94.2354 265.8959 14.42213641219368
