OBJECT_NAME,OBJECT_ID,EPOCH,MEAN_MOTION,ECCENTRICITY,INCLINATION,RA_OF_ASC_NODE,ARG_OF_PERICENTER,MEAN_ANOMALY,EPHEMERIS_TYPE,CLASSIFICATION_TYPE,NORAD_CAT_ID,ELEMENT_SET_NO,REV_AT_EPOCH,BSTAR,MEAN_MOTION_DOT,MEAN_MOTION_DDOT
STARLINK-3678,2022-029AK,2026-06-05T20:47:39.075936,15.08849094,.00034315,53.1884,33.2452,88.2214,271.9171,0,U,52121,999,23423,.12496524E-3,.1701E-4,0
STARLINK-3726,2022-029AL,2026-06-05T21:18:06.804864,15.08833997,.0001061,53.1775,43.1550,103.2537,256.8573,0,U,52122,999,23410,.39299E-4,.338E-5,0
STARLINK-3725,2022-029AM,2026-06-06T08:54:58.731840,15.08841112,.00012251,53.1752,30.8017,88.1086,272.0046,0,U,52123,999,23432,.99942903E-4,.1303E-4,0
STARLINK-3727,2022-029AP,2026-06-06T09:14:49.837056,15.08838343,.00013823,53.1756,30.9183,81.9765,278.1383,0,U,52125,999,23432,.51061534E-4,.525E-5,0
STARLINK-3732,2022-029AQ,2026-06-06T07:50:04.327872,15.08827002,.00023497,53.1748,31.1811,47.6306,312.4884,0,U,52126,999,23430,.99222508E-4,.1291E-4,0
STARLINK-3715,2022-029AR,2026-06-06T09:09:31.653504,15.08842064,.0001291,53.1755,30.9341,81.3723,278.7415,0,U,52127,999,23431,.45218153E-4,.432E-5,0
STARLINK-3661,2022-029AT,2026-06-06T08:58:55.922304,15.08836393,.00012555,53.1748,30.9663,96.9815,263.1320,0,U,52129,999,23432,.7298621E-4,.874E-5,0
STARLINK-3711,2022-029AV,2026-06-05T21:58:32.340576,15.18027262,.00041304,53.2154,26.8698,99.8229,260.3234,0,U,52131,999,23434,.13891467E-2,.28412E-3,0
STARLINK-3718,2022-029AW,2026-06-06T09:04:13.936512,15.08837230,.0001332,53.1740,30.9512,83.3545,276.7598,0,U,52132,999,23432,.56535441E-4,.612E-5,0
STARLINK-3707,2022-029AX,2026-06-06T08:43:02.168256,15.08835147,.00012761,53.1725,31.0147,90.6465,269.4672,0,U,52133,999,23432,.86668947E-4,.1092E-4,0
STARLINK-3721,2022-029AY,2026-06-06T08:48:20.047680,15.08836680,.00013135,53.1739,30.9984,89.1878,270.9264,0,U,52134,999,23432,.10516642E-3,.1386E-4,0
STARLINK-3729,2022-029AZ,2026-06-06T13:07:04.797984,16.12065036,.00028013,53.2142,9.5195,273.3289,86.7428,0,U,52135,999,23464,.91955811E-3,.1011733E-1,.63789793E-3
STARLINK-3720,2022-029BA,2026-06-06T08:37:44.453856,15.08833750,.0001515,53.1724,31.0307,89.9197,270.1968,0,U,52136,999,23432,.74334461E-4,.895E-5,0
STARLINK-3733,2022-029BB,2026-06-06T08:21:50.570208,15.08835320,.0001314,53.1735,31.0782,83.5248,276.5894,0,U,52137,999,23432,.19657E-4,.25E-6,0
STARLINK-3723,2022-029BC,2026-06-06T08:32:27.133440,15.08802974,.00013699,53.1745,31.0515,117.9258,242.1872,0,U,52138,999,23432,.43492183E-3,.6634E-4,0
STARLINK-3730,2022-029BD,2026-06-06T09:39:59.754816,15.08843891,.00012446,53.1753,40.8377,91.7232,268.3902,0,U,52139,999,23418,.91697444E-4,.1172E-4,0
STARLINK-3682,2022-029BE,2026-06-06T08:16:31.549440,15.08823270,.00029673,53.1887,31.1020,103.9716,256.1606,0,U,52140,999,23432,-.13801561E-3,-.2484E-4,0
MERIDIAN 10,2022-030A,2026-06-06T12:03:37.346112,2.00614902,.6780806,62.6782,141.9394,272.8632,17.6770,0,U,52145,999,3081,0,.233E-5,0
TK-2,2022-031A,2026-06-06T21:10:35.591232,15.03497881,.0016188,97.8337,353.9029,156.1077,204.0903,0,U,52150,999,22891,.27237E-3,.366E-4,0
PUJIANG 2 (PJ-2),2022-031B,2026-06-06T20:40:25.905216,14.94304504,.0010477,97.8610,343.3928,233.3270,126.6987,0,U,52151,999,22825,.91627E-4,.926E-5,0
TIANPING 2A,2022-032A,2026-06-06T20:29:46.637664,14.97178473,.0009364,97.5857,195.8650,204.2920,155.7862,0,U,52153,999,22829,.18398E-3,.2071E-4,0
TIANPING 2B,2022-032C,2026-06-06T20:00:39.101760,15.01617094,.0022564,97.5852,203.3301,193.6449,166.4168,0,U,52155,999,22872,.57949E-4,.695E-5,0
TIANPING 2C,2022-032D,2026-06-06T21:20:10.723200,15.11128827,.0006357,97.5830,210.3287,178.4652,181.6598,0,U,52156,999,22929,.46844E-3,.7793E-4,0
OMNI-L1,2022-033A,2026-06-06T10:46:20.410176,14.82709966,.00042875,97.8389,236.8351,333.8855,26.2142,0,U,52157,999,22586,.31790665E-3,.2514E-4,0
GNOMES-3,2022-033B,2026-06-06T10:58:40.285344,14.85047576,.00107771,97.8226,233.9581,7.0950,353.0416,0,U,52158,999,22574,.26386726E-3,.2202E-4,0
ENMAP,2022-033C,2026-06-06T20:29:49.754112,14.74977835,.0001391,97.9790,240.2499,80.2400,279.8966,0,U,52159,999,22513,.27855E-4,.137E-5,0
ARCSAT-1,2022-033E,2026-06-06T11:56:07.101888,15.53357717,.00039133,97.2747,249.6136,221.4280,138.6677,0,U,52161,999,23404,.27594585E-3,.17349E-3,0
NUSAT-26 (M SOMERVILLE),2022-033AD,2026-06-06T20:38:33.584352,15.41881755,.0004191,97.2350,237.0234,281.5483,78.5294,0,U,52184,999,10311,.21172E-3,.8907E-4,0
GLOBAL-18,2022-034B,2026-06-06T14:07:47.714880,15.45816795,.0003473,52.9829,307.2751,221.6043,138.4698,0,U,52196,999,23532,.54618E-3,.26573E-3,0
GAOFEN-3 03,2022-035A,2026-06-06T21:24:58.334112,14.42213641,.0001081,98.4064,166.6223,94.2354,265.8959,0,U,52200,999,21936,.15562E-4,.8E-7,0
